[
    {
        "Altitude(m)": 558749.6898477644,
        "Argument of Periapsis(deg)": 0.019868973332140504,
        "Eccentricity": 0.0,
        "Inclination(deg)": 53.0,
        "Latitude(deg)": 48.128439473729664,
        "Longitude(deg)": 54.34863089797713,
        "Mean Anomaly(deg)": 68.45667860273275,
        "RAAN(deg)": 99.97043010558403,
        "Satellite Name": "Starlink Shell 1 442",
        "Satellite Number": 442,
        "Semi-Major Axis(m)": 6931778.249405717,
        "Time(s)": 570
    },
    {
        "Altitude(m)": 558811.9539074285,
        "Argument of Periapsis(deg)": 0.02021755181165174,
        "Eccentricity": 0.0,
        "Inclination(deg)": 53.0,
        "Latitude(deg)": 48.400277785729784,
        "Longitude(deg)": 55.15390897425587,
        "Mean Anomaly(deg)": 69.08350980628947,
        "RAAN(deg)": 99.96991133550658,
        "Satellite Name": "Starlink Shell 1 442",
        "Satellite Number": 442,
        "Semi-Major Axis(m)": 6931778.249405717,
        "Time(s)": 580
    },
    {
        "Altitude(m)": 558872.8074230825,
        "Argument of Periapsis(deg)": 0.020566130291162974,
        "Eccentricity": 0.0,
        "Inclination(deg)": 53.0,
        "Latitude(deg)": 48.66581084121473,
        "Longitude(deg)": 55.968142813802174,
        "Mean Anomaly(deg)": 69.71034100984622,
        "RAAN(deg)": 99.9693925654291,
        "Satellite Name": "Starlink Shell 1 442",
        "Satellite Number": 442,
        "Semi-Major Axis(m)": 6931778.249405717,
        "Time(s)": 590
    },
    {
        "Altitude(m)": 558932.2131433932,
        "Argument of Periapsis(deg)": 0.020914708770674213,
        "Eccentricity": 0.0,
        "Inclination(deg)": 53.0,
        "Latitude(deg)": 48.92491401453809,
        "Longitude(deg)": 56.79129505458509,
        "Mean Anomaly(deg)": 70.3371722134029,
        "RAAN(deg)": 99.96887379535163,
        "Satellite Name": "Starlink Shell 1 442",
        "Satellite Number": 442,
        "Semi-Major Axis(m)": 6931778.249405717,
        "Time(s)": 600
    },
    {
        "Altitude(m)": 558990.1347535423,
        "Argument of Periapsis(deg)": 0.021263287250185448,
        "Eccentricity": 0.0,
        "Inclination(deg)": 53.0,
        "Latitude(deg)": 49.17746261475734,
        "Longitude(deg)": 57.62331561156517,
        "Mean Anomaly(deg)": 70.96400341695964,
        "RAAN(deg)": 99.96835502527415,
        "Satellite Name": "Starlink Shell 1 442",
        "Satellite Number": 442,
        "Semi-Major Axis(m)": 6931778.249405717,
        "Time(s)": 610
    },
    {
        "Altitude(m)": 559046.5368931586,
        "Argument of Periapsis(deg)": 0.021611865729696686,
        "Eccentricity": 0.0,
        "Inclination(deg)": 53.0,
        "Latitude(deg)": 49.42333208050422,
        "Longitude(deg)": 58.46414166443071,
        "Mean Anomaly(deg)": 71.59083462051635,
        "RAAN(deg)": 99.96783625519667,
        "Satellite Name": "Starlink Shell 1 442",
        "Satellite Number": 442,
        "Semi-Major Axis(m)": 6931778.249405717,
        "Time(s)": 620
    },
    {
        "Altitude(m)": 559101.3851737257,
        "Argument of Periapsis(deg)": 0.02196044420920792,
        "Eccentricity": 0.0,
        "Inclination(deg)": 53.0,
        "Latitude(deg)": 49.66239818587716,
        "Longitude(deg)": 59.31369598528281,
        "Mean Anomaly(deg)": 72.21766582407305,
        "RAAN(deg)": 99.9673174851192,
        "Satellite Name": "Starlink Shell 1 442",
        "Satellite Number": 442,
        "Semi-Major Axis(m)": 6931778.249405717,
        "Time(s)": 630
    },
    {
        "Altitude(m)": 559154.6461955108,
        "Argument of Periapsis(deg)": 0.02230902268871916,
        "Eccentricity": 0.0,
        "Inclination(deg)": 53.0,
        "Latitude(deg)": 49.89453725710663,
        "Longitude(deg)": 60.171887813409796,
        "Mean Anomaly(deg)": 72.84449702762976,
        "RAAN(deg)": 99.96679871504175,
        "Satellite Name": "Starlink Shell 1 442",
        "Satellite Number": 442,
        "Semi-Major Axis(m)": 6931778.249405717,
        "Time(s)": 640
    },
    {
        "Altitude(m)": 559206.2875640107,
        "Argument of Periapsis(deg)": 0.022657601168230398,
        "Eccentricity": 0.0,
        "Inclination(deg)": 53.0,
        "Latitude(deg)": 50.11962639963546,
        "Longitude(deg)": 61.03861123913836,
        "Mean Anomaly(deg)": 73.47132823118646,
        "RAAN(deg)": 99.96627994496427,
        "Satellite Name": "Starlink Shell 1 442",
        "Satellite Number": 442,
        "Semi-Major Axis(m)": 6931778.249405717,
        "Time(s)": 650
    },
    {
        "Altitude(m)": 559256.2779058584,
        "Argument of Periapsis(deg)": 0.023006179647741636,
        "Eccentricity": 0.0,
        "Inclination(deg)": 53.0,
        "Latitude(deg)": 50.33754373515968,
        "Longitude(deg)": 61.91374530425496,
        "Mean Anomaly(deg)": 74.0981594347432,
        "RAAN(deg)": 99.9657611748868,
        "Satellite Name": "Starlink Shell 1 442",
        "Satellite Number": 442,
        "Semi-Major Axis(m)": 6931778.249405717,
        "Time(s)": 660
    },
    {
        "Altitude(m)": 559304.5868842455,
        "Argument of Periapsis(deg)": 0.023354758127252868,
        "Eccentricity": 0.0,
        "Inclination(deg)": 53.0,
        "Latitude(deg)": 50.5481686480588,
        "Longitude(deg)": 62.797154143193424,
        "Mean Anomaly(deg)": 74.72499063829994,
        "RAAN(deg)": 99.96524240480932,
        "Satellite Name": "Starlink Shell 1 442",
        "Satellite Number": 442,
        "Semi-Major Axis(m)": 6931778.249405717,
        "Time(s)": 670
    },
    {
        "Altitude(m)": 559351.1852138176,
        "Argument of Periapsis(deg)": 0.023703336606764106,
        "Eccentricity": 0.0,
        "Inclination(deg)": 53.0,
        "Latitude(deg)": 50.751382040529094,
        "Longitude(deg)": 63.688685657340564,
        "Mean Anomaly(deg)": 75.35182184185665,
        "RAAN(deg)": 99.96472363473184,
        "Satellite Name": "Starlink Shell 1 442",
        "Satellite Number": 442,
        "Semi-Major Axis(m)": 6931778.249405717,
        "Time(s)": 680
    },
    {
        "Altitude(m)": 559396.044675039,
        "Argument of Periapsis(deg)": 0.024051915086275345,
        "Eccentricity": 0.0,
        "Inclination(deg)": 53.0,
        "Latitude(deg)": 50.947066595621195,
        "Longitude(deg)": 64.58817175343825,
        "Mean Anomaly(deg)": 75.97865304541332,
        "RAAN(deg)": 99.96420486465436,
        "Satellite Name": "Starlink Shell 1 442",
        "Satellite Number": 442,
        "Semi-Major Axis(m)": 6931778.249405717,
        "Time(s)": 690
    },
    {
        "Altitude(m)": 559439.1381280225,
        "Argument of Periapsis(deg)": 0.024400493565786583,
        "Eccentricity": 0.0,
        "Inclination(deg)": 53.0,
        "Latitude(deg)": 51.13510704725776,
        "Longitude(deg)": 65.49542863836432,
        "Mean Anomaly(deg)": 76.60548424897004,
        "RAAN(deg)": 99.96368609457691,
        "Satellite Name": "Starlink Shell 1 442",
        "Satellite Number": 442,
        "Semi-Major Axis(m)": 6931778.249405717,
        "Time(s)": 700
    },
    {
        "Altitude(m)": 559480.4395258384,
        "Argument of Periapsis(deg)": 0.024749072045297815,
        "Eccentricity": 0.0,
        "Inclination(deg)": 53.0,
        "Latitude(deg)": 51.31539045618888,
        "Longitude(deg)": 66.41025566243871,
        "Mean Anomaly(deg)": 77.23231545252679,
        "RAAN(deg)": 99.96316732449944,
        "Satellite Name": "Starlink Shell 1 442",
        "Satellite Number": 442,
        "Semi-Major Axis(m)": 6931778.249405717,
        "Time(s)": 710
    },
    {
        "Altitude(m)": 559519.9239272651,
        "Argument of Periapsis(deg)": 0.025097650524809053,
        "Eccentricity": 0.0,
        "Inclination(deg)": 53.0,
        "Latitude(deg)": 51.48780649072906,
        "Longitude(deg)": 67.33243574181861,
        "Mean Anomaly(deg)": 77.8591466560835,
        "RAAN(deg)": 99.96264855442196,
        "Satellite Name": "Starlink Shell 1 442",
        "Satellite Number": 442,
        "Semi-Major Axis(m)": 6931778.249405717,
        "Time(s)": 720
    },
    {
        "Altitude(m)": 559557.5675090018,
        "Argument of Periapsis(deg)": 0.02544622900432029,
        "Eccentricity": 0.0,
        "Inclination(deg)": 53.0,
        "Latitude(deg)": 51.65224771099997,
        "Longitude(deg)": 68.26173585162267,
        "Mean Anomaly(deg)": 78.48597785964019,
        "RAAN(deg)": 99.96212978434448,
        "Satellite Name": "Starlink Shell 1 442",
        "Satellite Number": 442,
        "Semi-Major Axis(m)": 6931778.249405717,
        "Time(s)": 730
    },
    {
        "Altitude(m)": 559593.3475773147,
        "Argument of Periapsis(deg)": 0.02579480748383153,
        "Eccentricity": 0.0,
        "Inclination(deg)": 53.0,
        "Latitude(deg)": 51.808609855295934,
        "Longitude(deg)": 69.19790608105619,
        "Mean Anomaly(deg)": 79.1128090631969,
        "RAAN(deg)": 99.961611014267,
        "Satellite Name": "Starlink Shell 1 442",
        "Satellite Number": 442,
        "Semi-Major Axis(m)": 6931778.249405717,
        "Time(s)": 740
    },
    {
        "Altitude(m)": 559627.2425791349,
        "Argument of Periapsis(deg)": 0.026143385963342765,
        "Eccentricity": 0.0,
        "Inclination(deg)": 53.0,
        "Latitude(deg)": 51.956792127090054,
        "Longitude(deg)": 70.1406802799781,
        "Mean Anomaly(deg)": 79.73964026675361,
        "RAAN(deg)": 99.96109224418953,
        "Satellite Name": "Starlink Shell 1 442",
        "Satellite Number": 442,
        "Semi-Major Axis(m)": 6931778.249405717,
        "Time(s)": 750
    }
]